[{"OBJECT_NAME":"KUIPER-00089","OBJECT_ID":"2025-151U","EPOCH":"2026-03-09T19:25:03.862272","MEAN_MOTION":14.79804244,"ECCENTRICITY":7.955e-5,"INCLINATION":51.8998,"RA_OF_ASC_NODE":285.0532,"ARG_OF_PERICENTER":75.7298,"MEAN_ANOMALY":284.3752,"EPHEMERIS_TYPE":0,"CLASSIFICATION_TYPE":"U","NORAD_CAT_ID":64834,"ELEMENT_SET_NO":999,"REV_AT_EPOCH":3553,"BSTAR":0.00055758047,"MEAN_MOTION_DOT":4.019e-5,"MEAN_MOTION_DDOT":0},{"OBJECT_NAME":"LIBERTAD-1","OBJECT_ID":"2007-012M","EPOCH":"2026-03-09T21:13:05.577312","MEAN_MOTION":14.63507923,"ECCENTRICITY":0.00860733,"INCLINATION":98.4287,"RA_OF_ASC_NODE":36.5248,"ARG_OF_PERICENTER":30.8235,"MEAN_ANOMALY":329.7979,"EPHEMERIS_TYPE":0,"CLASSIFICATION_TYPE":"U","NORAD_CAT_ID":31128,"ELEMENT_SET_NO":999,"REV_AT_EPOCH":374,"BSTAR":0.00047979773,"MEAN_MOTION_DOT":2.57e-5,"MEAN_MOTION_DDOT":0}]
